[
    {
        "Altitude(m)": 705663.5955708271,
        "Argument of Periapsis(deg)": 0.0,
        "Eccentricity": 0.0,
        "Inclination(deg)": 45.0,
        "Latitude(deg)": -11.613203335325034,
        "Longitude(deg)": 83.23585681881093,
        "Mean Anomaly(deg)": -16.363600000000012,
        "RAAN(deg)": 195.00000000000003,
        "Satellite Name": "Constellation 1 879",
        "Satellite Number": 879,
        "Semi-Major Axis(m)": 7083131.272910544,
        "Time(s)": 0
    },
    {
        "Altitude(m)": 705652.942506593,
        "Argument of Periapsis(deg)": 5.994800624540561e-05,
        "Eccentricity": 0.0,
        "Inclination(deg)": 45.0,
        "Latitude(deg)": -11.570935805679069,
        "Longitude(deg)": 83.27637293647852,
        "Mean Anomaly(deg)": -16.30289885975015,
        "RAAN(deg)": 194.99994341083442,
        "Satellite Name": "Constellation 1 879",
        "Satellite Number": 879,
        "Semi-Major Axis(m)": 7083131.272910544,
        "Time(s)": 1
    },
    {
        "Altitude(m)": 705642.3050879342,
        "Argument of Periapsis(deg)": 0.00011989601249081122,
        "Eccentricity": 0.0,
        "Inclination(deg)": 45.0,
        "Latitude(deg)": -11.528661192047329,
        "Longitude(deg)": 83.31687576632713,
        "Mean Anomaly(deg)": -16.24219771950029,
        "RAAN(deg)": 194.99988682166887,
        "Satellite Name": "Constellation 1 879",
        "Satellite Number": 879,
        "Semi-Major Axis(m)": 7083131.272910544,
        "Time(s)": 2
    },
    {
        "Altitude(m)": 705631.683344756,
        "Argument of Periapsis(deg)": 0.00017984401873621686,
        "Eccentricity": 0.0,
        "Inclination(deg)": 45.0,
        "Latitude(deg)": -11.48637952264634,
        "Longitude(deg)": 83.35736536026552,
        "Mean Anomaly(deg)": -16.18149657925033,
        "RAAN(deg)": 194.99983023250329,
        "Satellite Name": "Constellation 1 879",
        "Satellite Number": 879,
        "Semi-Major Axis(m)": 7083131.272910544,
        "Time(s)": 3
    },
    {
        "Altitude(m)": 705621.0773069029,
        "Argument of Periapsis(deg)": 0.00023979202498162244,
        "Eccentricity": 0.0,
        "Inclination(deg)": 45.0,
        "Latitude(deg)": -11.444090825667596,
        "Longitude(deg)": 83.39784177017692,
        "Mean Anomaly(deg)": -16.120795439000464,
        "RAAN(deg)": 194.99977364333773,
        "Satellite Name": "Constellation 1 879",
        "Satellite Number": 879,
        "Semi-Major Axis(m)": 7083131.272910544,
        "Time(s)": 4
    },
    {
        "Altitude(m)": 705610.4870041282,
        "Argument of Periapsis(deg)": 0.00029974003122702807,
        "Eccentricity": 0.0,
        "Inclination(deg)": 45.0,
        "Latitude(deg)": -11.40179512927727,
        "Longitude(deg)": 83.43830504791941,
        "Mean Anomaly(deg)": -16.060094298750503,
        "RAAN(deg)": 194.99971705417215,
        "Satellite Name": "Constellation 1 879",
        "Satellite Number": 879,
        "Semi-Major Axis(m)": 7083131.272910544,
        "Time(s)": 5
    },
    {
        "Altitude(m)": 705599.9124661273,
        "Argument of Periapsis(deg)": 0.00035968803747243373,
        "Eccentricity": 0.0,
        "Inclination(deg)": 45.0,
        "Latitude(deg)": -11.359492461616764,
        "Longitude(deg)": 83.47875524532549,
        "Mean Anomaly(deg)": -15.999393158500666,
        "RAAN(deg)": 194.9996604650066,
        "Satellite Name": "Constellation 1 879",
        "Satellite Number": 879,
        "Semi-Major Axis(m)": 7083131.272910544,
        "Time(s)": 6
    },
    {
        "Altitude(m)": 705589.3537224999,
        "Argument of Periapsis(deg)": 0.00041963604371783933,
        "Eccentricity": 0.0,
        "Inclination(deg)": 45.0,
        "Latitude(deg)": -11.317182850802466,
        "Longitude(deg)": 83.51919224610562,
        "Mean Anomaly(deg)": -15.93869201825078,
        "RAAN(deg)": 194.99960387584105,
        "Satellite Name": "Constellation 1 879",
        "Satellite Number": 879,
        "Semi-Major Axis(m)": 7083131.272910544,
        "Time(s)": 7
    },
    {
        "Altitude(m)": 705578.8108027804,
        "Argument of Periapsis(deg)": 0.0004795840499632449,
        "Eccentricity": 0.0,
        "Inclination(deg)": 45.0,
        "Latitude(deg)": -11.274866324925803,
        "Longitude(deg)": 83.55961643823603,
        "Mean Anomaly(deg)": -15.877990878000842,
        "RAAN(deg)": 194.99954728667544,
        "Satellite Name": "Constellation 1 879",
        "Satellite Number": 879,
        "Semi-Major Axis(m)": 7083131.272910544,
        "Time(s)": 8
    },
    {
        "Altitude(m)": 705568.283736425,
        "Argument of Periapsis(deg)": 0.0005395320562086505,
        "Eccentricity": 0.0,
        "Inclination(deg)": 45.0,
        "Latitude(deg)": -11.232542912053825,
        "Longitude(deg)": 83.60002770537677,
        "Mean Anomaly(deg)": -15.81728973775088,
        "RAAN(deg)": 194.99949069750988,
        "Satellite Name": "Constellation 1 879",
        "Satellite Number": 879,
        "Semi-Major Axis(m)": 7083131.272910544,
        "Time(s)": 9
    },
    {
        "Altitude(m)": 705557.772552812,
        "Argument of Periapsis(deg)": 0.0005994800624540561,
        "Eccentricity": 0.0,
        "Inclination(deg)": 45.0,
        "Latitude(deg)": -11.190212640228983,
        "Longitude(deg)": 83.6404260992598,
        "Mean Anomaly(deg)": -15.756588597501095,
        "RAAN(deg)": 194.9994341083443,
        "Satellite Name": "Constellation 1 879",
        "Satellite Number": 879,
        "Semi-Major Axis(m)": 7083131.272910544,
        "Time(s)": 10
    },
    {
        "Altitude(m)": 705547.277281239,
        "Argument of Periapsis(deg)": 0.0006594280686994618,
        "Eccentricity": 0.0,
        "Inclination(deg)": 45.0,
        "Latitude(deg)": -11.147875537468906,
        "Longitude(deg)": 83.6808116715925,
        "Mean Anomaly(deg)": -15.695887457251157,
        "RAAN(deg)": 194.99937751917875,
        "Satellite Name": "Constellation 1 879",
        "Satellite Number": 879,
        "Semi-Major Axis(m)": 7083131.272910544,
        "Time(s)": 11
    },
    {
        "Altitude(m)": 705536.797950932,
        "Argument of Periapsis(deg)": 0.0007193760749448675,
        "Eccentricity": 0.0,
        "Inclination(deg)": 45.0,
        "Latitude(deg)": -11.105531631767162,
        "Longitude(deg)": 83.72118447405697,
        "Mean Anomaly(deg)": -15.63518631700117,
        "RAAN(deg)": 194.99932093001314,
        "Satellite Name": "Constellation 1 879",
        "Satellite Number": 879,
        "Semi-Major Axis(m)": 7083131.272910544,
        "Time(s)": 12
    },
    {
        "Altitude(m)": 705526.3345910467,
        "Argument of Periapsis(deg)": 0.000779324081190273,
        "Eccentricity": 0.0,
        "Inclination(deg)": 45.0,
        "Latitude(deg)": -11.063180951093136,
        "Longitude(deg)": 83.76154455831043,
        "Mean Anomaly(deg)": -15.574485176751438,
        "RAAN(deg)": 194.9992643408476,
        "Satellite Name": "Constellation 1 879",
        "Satellite Number": 879,
        "Semi-Major Axis(m)": 7083131.272910544,
        "Time(s)": 13
    },
    {
        "Altitude(m)": 705515.8872306377,
        "Argument of Periapsis(deg)": 0.0008392720874356787,
        "Eccentricity": 0.0,
        "Inclination(deg)": 45.0,
        "Latitude(deg)": -11.020823523391565,
        "Longitude(deg)": 83.80189197598584,
        "Mean Anomaly(deg)": -15.513784036501473,
        "RAAN(deg)": 194.99920775168204,
        "Satellite Name": "Constellation 1 879",
        "Satellite Number": 879,
        "Semi-Major Axis(m)": 7083131.272910544,
        "Time(s)": 14
    },
    {
        "Altitude(m)": 705505.4558987081,
        "Argument of Periapsis(deg)": 0.0008992200936810842,
        "Eccentricity": 0.0,
        "Inclination(deg)": 45.0,
        "Latitude(deg)": -10.978459376583594,
        "Longitude(deg)": 83.84222661059404,
        "Mean Anomaly(deg)": -15.45308289625151,
        "RAAN(deg)": 194.99915116251645,
        "Satellite Name": "Constellation 1 879",
        "Satellite Number": 879,
        "Semi-Major Axis(m)": 7083131.272910544,
        "Time(s)": 15
    },
    {
        "Altitude(m)": 705495.0406241684,
        "Argument of Periapsis(deg)": 0.0009591680999264898,
        "Eccentricity": 0.0,
        "Inclination(deg)": 45.0,
        "Latitude(deg)": -10.936088538566175,
        "Longitude(deg)": 83.88254884991233,
        "Mean Anomaly(deg)": -15.39238175600165,
        "RAAN(deg)": 194.9990945733509,
        "Satellite Name": "Constellation 1 879",
        "Satellite Number": 879,
        "Semi-Major Axis(m)": 7083131.272910544,
        "Time(s)": 16
    },
    {
        "Altitude(m)": 705484.6414358562,
        "Argument of Periapsis(deg)": 0.0010191161061718953,
        "Eccentricity": 0.0,
        "Inclination(deg)": 45.0,
        "Latitude(deg)": -10.893711037212404,
        "Longitude(deg)": 83.92285857740255,
        "Mean Anomaly(deg)": -15.331680615751814,
        "RAAN(deg)": 194.99903798418535,
        "Satellite Name": "Constellation 1 879",
        "Satellite Number": 879,
        "Semi-Major Axis(m)": 7083131.272910544,
        "Time(s)": 17
    },
    {
        "Altitude(m)": 705474.2583625327,
        "Argument of Periapsis(deg)": 0.001079064112417301,
        "Eccentricity": 0.0,
        "Inclination(deg)": 45.0,
        "Latitude(deg)": -10.851326900371571,
        "Longitude(deg)": 83.96315584459921,
        "Mean Anomaly(deg)": -15.270979475501825,
        "RAAN(deg)": 194.99898139501974,
        "Satellite Name": "Constellation 1 879",
        "Satellite Number": 879,
        "Semi-Major Axis(m)": 7083131.272910544,
        "Time(s)": 18
    }
]